[{"OBJECT_NAME":"ONEWEB-0588","OBJECT_ID":"2023-004P","EPOCH":"2026-03-23T05:10:23.002464","MEAN_MOTION":13.18685755,"ECCENTRICITY":0.00017965,"INCLINATION":87.9239,"RA_OF_ASC_NODE":352.5582,"ARG_OF_PERICENTER":64.585,"MEAN_ANOMALY":295.5468,"EPHEMERIS_TYPE":0,"CLASSIFICATION_TYPE":"U","NORAD_CAT_ID":55153,"ELEMENT_SET_NO":999,"REV_AT_EPOCH":15836,"BSTAR":0.00017956958,"MEAN_MOTION_DOT":8.4e-7,"MEAN_MOTION_DDOT":0},{"OBJECT_NAME":"ONEWEB-0598","OBJECT_ID":"2023-004Q","EPOCH":"2026-03-23T04:10:17.589216","MEAN_MOTION":13.11415693,"ECCENTRICITY":0.00024886,"INCLINATION":87.8883,"RA_OF_ASC_NODE":38.1691,"ARG_OF_PERICENTER":78.9985,"MEAN_ANOMALY":281.1423,"EPHEMERIS_TYPE":0,"CLASSIFICATION_TYPE":"U","NORAD_CAT_ID":55154,"ELEMENT_SET_NO":999,"REV_AT_EPOCH":15462,"BSTAR":0.001386013,"MEAN_MOTION_DOT":5.04e-6,"MEAN_MOTION_DDOT":0},{"OBJECT_NAME":"ONEWEB-0599","OBJECT_ID":"2023-004R","EPOCH":"2026-03-22T20:05:48.168384","MEAN_MOTION":13.17649757,"ECCENTRICITY":0.00020175,"INCLINATION":87.9169,"RA_OF_ASC_NODE":23.012,"ARG_OF_PERICENTER":84.117,"MEAN_ANOMALY":276.0191,"EPHEMERIS_TYPE":0,"CLASSIFICATION_TYPE":"U","NORAD_CAT_ID":55155,"ELEMENT_SET_NO":999,"REV_AT_EPOCH":15611,"BSTAR":0.00011144094,"MEAN_MOTION_DOT":5.6e-7,"MEAN_MOTION_DDOT":0},{"OBJECT_NAME":"ONEWEB-0614","OBJECT_ID":"2023-004S","EPOCH":"2026-03-23T04:02:57.799392","MEAN_MOTION":13.11419816,"ECCENTRICITY":0.00016486,"INCLINATION":87.8887,"RA_OF_ASC_NODE":38.1782,"ARG_OF_PERICENTER":76.2804,"MEAN_ANOMALY":283.8508,"EPHEMERIS_TYPE":0,"CLASSIFICATION_TYPE":"U","NORAD_CAT_ID":55156,"ELEMENT_SET_NO":999,"REV_AT_EPOCH":15456,"BSTAR":0.0015053558,"MEAN_MOTION_DOT":5.46e-6,"MEAN_MOTION_DDOT":0},{"OBJECT_NAME":"ONEWEB-0616","OBJECT_ID":"2023-004T","EPOCH":"2026-03-22T13:49:09.699744","MEAN_MOTION":13.17650055,"ECCENTRICITY":0.00022949,"INCLINATION":87.9172,"RA_OF_ASC_NODE":23.0654,"ARG_OF_PERICENTER":103.4389,"MEAN_ANOMALY":256.6998,"EPHEMERIS_TYPE":0,"CLASSIFICATION_TYPE":"U","NORAD_CAT_ID":55157,"ELEMENT_SET_NO":999,"REV_AT_EPOCH":15629,"BSTAR":0.0001291686,"MEAN_MOTION_DOT":6.3e-7,"MEAN_MOTION_DDOT":0},{"OBJECT_NAME":"ONEWEB-0617","OBJECT_ID":"2023-004U","EPOCH":"2026-03-23T05:35:43.879200","MEAN_MOTION":13.11423182,"ECCENTRICITY":0.00016664,"INCLINATION":87.8898,"RA_OF_ASC_NODE":38.1501,"ARG_OF_PERICENTER":68.8447,"MEAN_ANOMALY":291.2859,"EPHEMERIS_TYPE":0,"CLASSIFICATION_TYPE":"U","NORAD_CAT_ID":55158,"ELEMENT_SET_NO":999,"REV_AT_EPOCH":15459,"BSTAR":0.00080474986,"MEAN_MOTION_DOT":2.98e-6,"MEAN_MOTION_DDOT":0},{"OBJECT_NAME":"ONEWEB-0618","OBJECT_ID":"2023-004V","EPOCH":"2026-03-22T20:45:38.616192","MEAN_MOTION":15.12173604,"ECCENTRICITY":0.00105521,"INCLINATION":86.9104,"RA_OF_ASC_NODE":212.6332,"ARG_OF_PERICENTER":250.413,"MEAN_ANOMALY":109.597,"EPHEMERIS_TYPE":0,"CLASSIFICATION_TYPE":"U","NORAD_CAT_ID":55159,"ELEMENT_SET_NO":999,"REV_AT_EPOCH":16921,"BSTAR":0.00054040993,"MEAN_MOTION_DOT":9.364e-5,"MEAN_MOTION_DDOT":0},{"OBJECT_NAME":"ONEWEB-0619","OBJECT_ID":"2023-004W","EPOCH":"2026-03-23T05:10:06.583008","MEAN_MOTION":13.17650415,"ECCENTRICITY":0.0001467,"INCLINATION":87.918,"RA_OF_ASC_NODE":22.9124,"ARG_OF_PERICENTER":86.64,"MEAN_ANOMALY":273.49,"EPHEMERIS_TYPE":0,"CLASSIFICATION_TYPE":"U","NORAD_CAT_ID":55160,"ELEMENT_SET_NO":999,"REV_AT_EPOCH":15627,"BSTAR":0.00018696369,"MEAN_MOTION_DOT":8.5e-7,"MEAN_MOTION_DDOT":0},{"OBJECT_NAME":"ONEWEB-0620","OBJECT_ID":"2023-004X","EPOCH":"2026-03-23T03:38:32.731008","MEAN_MOTION":13.11418393,"ECCENTRICITY":0.00020589,"INCLINATION":87.8888,"RA_OF_ASC_NODE":38.1811,"ARG_OF_PERICENTER":73.7526,"MEAN_ANOMALY":286.3828,"EPHEMERIS_TYPE":0,"CLASSIFICATION_TYPE":"U","NORAD_CAT_ID":55161,"ELEMENT_SET_NO":999,"REV_AT_EPOCH":15455,"BSTAR":-0.0001981892,"MEAN_MOTION_DOT":-5.8e-7,"MEAN_MOTION_DDOT":0},{"OBJECT_NAME":"ONEWEB-0621","OBJECT_ID":"2023-004Y","EPOCH":"2026-03-23T02:27:43.403616","MEAN_MOTION":13.11417869,"ECCENTRICITY":0.00016276,"INCLINATION":87.8894,"RA_OF_ASC_NODE":38.1721,"ARG_OF_PERICENTER":77.9445,"MEAN_ANOMALY":282.1865,"EPHEMERIS_TYPE":0,"CLASSIFICATION_TYPE":"U","NORAD_CAT_ID":55162,"ELEMENT_SET_NO":999,"REV_AT_EPOCH":15452,"BSTAR":0.0012004114,"MEAN_MOTION_DOT":4.38e-6,"MEAN_MOTION_DDOT":0},{"OBJECT_NAME":"ONEWEB-0622","OBJECT_ID":"2023-004Z","EPOCH":"2026-03-23T02:35:03.151968","MEAN_MOTION":13.11413981,"ECCENTRICITY":0.00017131,"INCLINATION":87.8892,"RA_OF_ASC_NODE":38.1729,"ARG_OF_PERICENTER":56.7652,"MEAN_ANOMALY":303.364,"EPHEMERIS_TYPE":0,"CLASSIFICATION_TYPE":"U","NORAD_CAT_ID":55163,"ELEMENT_SET_NO":999,"REV_AT_EPOCH":15451,"BSTAR":0.00077790409,"MEAN_MOTION_DOT":2.88e-6,"MEAN_MOTION_DDOT":0},{"OBJECT_NAME":"ONEWEB-0623","OBJECT_ID":"2023-004AA","EPOCH":"2026-03-23T05:02:49.114752","MEAN_MOTION":13.1765011,"ECCENTRICITY":0.00012166,"INCLINATION":87.9169,"RA_OF_ASC_NODE":22.9538,"ARG_OF_PERICENTER":63.9641,"MEAN_ANOMALY":296.1616,"EPHEMERIS_TYPE":0,"CLASSIFICATION_TYPE":"U","NORAD_CAT_ID":55164,"ELEMENT_SET_NO":999,"REV_AT_EPOCH":15626,"BSTAR":0.00023734532,"MEAN_MOTION_DOT":1.05e-6,"MEAN_MOTION_DDOT":0},{"OBJECT_NAME":"ONEWEB-0624","OBJECT_ID":"2023-004AB","EPOCH":"2026-03-23T05:32:41.589888","MEAN_MOTION":13.12924772,"ECCENTRICITY":0.00015859,"INCLINATION":87.9012,"RA_OF_ASC_NODE":7.6651,"ARG_OF_PERICENTER":76.2423,"MEAN_ANOMALY":283.8882,"EPHEMERIS_TYPE":0,"CLASSIFICATION_TYPE":"U","NORAD_CAT_ID":55165,"ELEMENT_SET_NO":999,"REV_AT_EPOCH":15679,"BSTAR":0.00097522234,"MEAN_MOTION_DOT":3.66e-6,"MEAN_MOTION_DDOT":0},{"OBJECT_NAME":"ONEWEB-0625","OBJECT_ID":"2023-004AC","EPOCH":"2026-03-23T04:48:14.313024","MEAN_MOTION":13.17650121,"ECCENTRICITY":0.00018715,"INCLINATION":87.9169,"RA_OF_ASC_NODE":22.9496,"ARG_OF_PERICENTER":84.8753,"MEAN_ANOMALY":275.2593,"EPHEMERIS_TYPE":0,"CLASSIFICATION_TYPE":"U","NORAD_CAT_ID":55166,"ELEMENT_SET_NO":999,"REV_AT_EPOCH":15625,"BSTAR":0.00018780011,"MEAN_MOTION_DOT":8.6e-7,"MEAN_MOTION_DDOT":0},{"OBJECT_NAME":"ONEWEB-0626","OBJECT_ID":"2023-004AD","EPOCH":"2026-03-23T04:33:39.877632","MEAN_MOTION":13.17647123,"ECCENTRICITY":0.00022757,"INCLINATION":87.917,"RA_OF_ASC_NODE":22.9516,"ARG_OF_PERICENTER":74.3418,"MEAN_ANOMALY":285.7964,"EPHEMERIS_TYPE":0,"CLASSIFICATION_TYPE":"U","NORAD_CAT_ID":55167,"ELEMENT_SET_NO":999,"REV_AT_EPOCH":15625,"BSTAR":-8.7819718e-5,"MEAN_MOTION_DOT":-2.1e-7,"MEAN_MOTION_DDOT":0},{"OBJECT_NAME":"ONEWEB-0627","OBJECT_ID":"2023-004AE","EPOCH":"2026-03-23T02:27:17.632224","MEAN_MOTION":13.17650045,"ECCENTRICITY":0.00013976,"INCLINATION":87.9171,"RA_OF_ASC_NODE":22.969,"ARG_OF_PERICENTER":69.3893,"MEAN_ANOMALY":290.7388,"EPHEMERIS_TYPE":0,"CLASSIFICATION_TYPE":"U","NORAD_CAT_ID":55168,"ELEMENT_SET_NO":999,"REV_AT_EPOCH":15624,"BSTAR":-0.00016529529,"MEAN_MOTION_DOT":-5.1e-7,"MEAN_MOTION_DDOT":0},{"OBJECT_NAME":"ONEWEB-0628","OBJECT_ID":"2023-004AF","EPOCH":"2026-03-23T04:20:20.779584","MEAN_MOTION":13.12442738,"ECCENTRICITY":0.00011111,"INCLINATION":87.9013,"RA_OF_ASC_NODE":7.7264,"ARG_OF_PERICENTER":69.8585,"MEAN_ANOMALY":290.2663,"EPHEMERIS_TYPE":0,"CLASSIFICATION_TYPE":"U","NORAD_CAT_ID":55169,"ELEMENT_SET_NO":999,"REV_AT_EPOCH":15675,"BSTAR":0.00036709038,"MEAN_MOTION_DOT":1.45e-6,"MEAN_MOTION_DDOT":0}]
