ONEWEB-0588             
1 55153U 23004P   26082.21554401  .00000084  00000+0  17957-3 0  9991
2 55153  87.9239 352.5582 0001796  64.5850 295.5468 13.18685755158361
ONEWEB-0598             
1 55154U 23004Q   26082.17381469  .00000504  00000+0  13860-2 0  9994
2 55154  87.8883  38.1691 0002488  78.9985 281.1423 13.11415693154623
ONEWEB-0599             
1 55155U 23004R   26081.83736306  .00000056  00000+0  11144-3 0  9997
2 55155  87.9169  23.0120 0002017  84.1170 276.0191 13.17649757156112
ONEWEB-0614             
1 55156U 23004S   26082.16872453  .00000546  00000+0  15054-2 0  9996
2 55156  87.8887  38.1782 0001648  76.2804 283.8508 13.11419816154565
ONEWEB-0616             
1 55157U 23004T   26081.57580671  .00000063  00000+0  12917-3 0  9999
2 55157  87.9172  23.0654 0002294 103.4389 256.6998 13.17650055156295
ONEWEB-0617             
1 55158U 23004U   26082.23314675  .00000298  00000+0  80475-3 0  9997
2 55158  87.8898  38.1501 0001666  68.8447 291.2859 13.11423182154594
ONEWEB-0618             
1 55159U 23004V   26081.86503028  .00009364  00000+0  54041-3 0  9991
2 55159  86.9104 212.6332 0010552 250.4130 109.5970 15.12173604169212
ONEWEB-0619             
1 55160U 23004W   26082.21535397  .00000085  00000+0  18696-3 0  9994
2 55160  87.9180  22.9124 0001467  86.6400 273.4900 13.17650415156273
ONEWEB-0620             
1 55161U 23004X   26082.15176772 -.00000058  00000+0 -19819-3 0  9996
2 55161  87.8888  38.1811 0002058  73.7526 286.3828 13.11418393154555
ONEWEB-0621             
1 55162U 23004Y   26082.10258569  .00000438  00000+0  12004-2 0  9995
2 55162  87.8894  38.1721 0001627  77.9445 282.1865 13.11417869154529
ONEWEB-0622             
1 55163U 23004Z   26082.10767537  .00000288  00000+0  77790-3 0  9993
2 55163  87.8892  38.1729 0001713  56.7652 303.3640 13.11413981154514
ONEWEB-0623             
1 55164U 23004AA  26082.21029068  .00000105  00000+0  23735-3 0  9994
2 55164  87.9169  22.9538 0001216  63.9641 296.1616 13.17650110156267
ONEWEB-0624             
1 55165U 23004AB  26082.23103692  .00000366  00000+0  97522-3 0  9997
2 55165  87.9012   7.6651 0001585  76.2423 283.8882 13.12924772156794
ONEWEB-0625             
1 55166U 23004AC  26082.20016566  .00000086  00000+0  18780-3 0  9996
2 55166  87.9169  22.9496 0001871  84.8753 275.2593 13.17650121156258
ONEWEB-0626             
1 55167U 23004AD  26082.19004488 -.00000021  00000+0 -87820-4 0  9998
2 55167  87.9170  22.9516 0002275  74.3418 285.7964 13.17647123156251
ONEWEB-0627             
1 55168U 23004AE  26082.10228741 -.00000051  00000+0 -16530-3 0  9992
2 55168  87.9171  22.9690 0001397  69.3893 290.7388 13.17650045156243
ONEWEB-0628             
1 55169U 23004AF  26082.18079606  .00000145  00000+0  36709-3 0  9997
2 55169  87.9013   7.7264 0001111  69.8585 290.2663 13.12442738156754
